H1 CPF  1  MCC 2022 10  7 15  7801 larets
H2  0304206 5557    27944 2022 10 06 23 45 00 2022 10 11 23 57 00   180 1 1  0 0 0
H9
10 0 59858 85500.000000 0      -538396.283     -1636404.274      6847895.468
10 0 59858 85680.000000 0     -1637893.049     -2340874.790      6458531.989
10 0 59858 85860.000000 0     -2695054.101     -2932216.899      5833450.769
10 0 59858 86040.000000 0     -3668289.881     -3390603.112      4995350.725
10 0 59858 86220.000000 0     -4518549.015     -3702044.937      3974709.649
10 0 59859     0.000000 0     -5210904.165     -3858829.913      2808714.251
10 0 59859   180.000000 0     -5716015.533     -3859701.824      1539934.860
10 0 59859   360.000000 0     -6011408.148     -3709773.400       214774.546
10 0 59859   540.000000 0     -6082490.426     -3420165.839     -1118251.367
10 0 59859   720.000000 0     -5923257.532     -3007391.848     -2410333.903
10 0 59859   900.000000 0     -5536633.445     -2492510.267     -3614203.229
10 0 59859  1080.000000 0     -4934440.080     -1900102.454     -4685886.489
10 0 59859  1260.000000 0     -4137002.259     -1257125.918     -5586320.071
10 0 59859  1440.000000 0     -3172412.078      -591703.000     -6282755.482
10 0 59859  1620.000000 0     -2075492.794        68097.230     -6749909.096
10 0 59859  1800.000000 0      -886513.305       695426.775     -6970828.955
10 0 59859  1980.000000 0       350292.971      1265731.831     -6937465.997
10 0 59859  2160.000000 0      1588354.038      1757699.260     -6650950.242
10 0 59859  2340.000000 0      2780493.063      2154048.498     -6121570.923
10 0 59859  2520.000000 0      3880717.647      2442144.644     -5368443.816
10 0 59859  2700.000000 0      4846000.282      2614409.328     -4418873.692
10 0 59859  2880.000000 0      5637994.753      2668517.276     -3307418.845
10 0 59859  3060.000000 0      6224612.383      2607365.768     -2074669.320
10 0 59859  3240.000000 0      6581386.825      2438815.475      -765773.761
10 0 59859  3420.000000 0      6692549.337      2175207.809       571240.021
10 0 59859  3600.000000 0      6551749.125      1832679.375      1887276.970
10 0 59859  3780.000000 0      6162381.643      1430312.380      3134032.923
10 0 59859  3960.000000 0      5537505.139       989163.651      4265821.683
10 0 59859  4140.000000 0      4699347.699       531226.255      5241279.018
10 0 59859  4320.000000 0      3678445.069        78381.723      6024871.563
10 0 59859  4500.000000 0      2512456.203      -348606.740      6588160.553
10 0 59859  4680.000000 0      1244723.064      -731010.166      6910780.526
10 0 59859  4860.000000 0       -77364.155     -1052927.709      6981125.620
10 0 59859  5040.000000 0     -1404141.971     -1301930.555      6796725.882
10 0 59859  5220.000000 0     -2685522.366     -1469533.382      6364313.522
10 0 59859  5400.000000 0     -3872860.187     -1551477.733      5699589.978
10 0 59859  5580.000000 0     -4920796.319     -1547824.792      4826699.023
10 0 59859  5760.000000 0     -5789012.868     -1462855.212      3777394.990
10 0 59859  5940.000000 0     -6443822.865     -1304773.233      2589924.964
10 0 59859  6120.000000 0     -6859530.771     -1085228.578      1307661.467
10 0 59859  6300.000000 0     -7019502.878      -818677.145       -22483.986
10 0 59859  6480.000000 0     -6916874.056      -521607.592     -1351807.555
10 0 59859  6660.000000 0     -6554852.059      -211674.059     -2631638.576
10 0 59859  6840.000000 0     -5946606.286        93217.531     -3815161.125
10 0 59859  7020.000000 0     -5114746.369       375823.972     -4859157.442
10 0 59859  7200.000000 0     -4090417.041       620433.093     -5725589.480
10 0 59859  7380.000000 0     -2912068.252       813640.848     -6382959.513
10 0 59859  7560.000000 0     -1623964.765       944999.795     -6807408.582
10 0 59859  7740.000000 0      -274503.724      1007516.856     -6983532.125
10 0 59859  7920.000000 0      1085596.611       997982.414     -6904898.439
10 0 59859  8100.000000 0      2405178.866       917119.544     -6574276.152
10 0 59859  8280.000000 0      3634556.054       769549.037     -6003556.935
10 0 59859  8460.000000 0      4727379.641       563569.640     -5213365.820
10 0 59859  8640.000000 0      5642407.028       310759.229     -4232371.399
10 0 59859  8820.000000 0      6345109.523        25411.290     -3096297.415
10 0 59859  9000.000000 0      6809045.683      -276173.790     -1846654.635
10 0 59859  9180.000000 0      7016935.106      -576511.716      -529227.060
10 0 59859  9360.000000 0      6961364.959      -857830.324       807635.243
10 0 59859  9540.000000 0      6645088.175     -1102993.666      2114841.045
10 0 59859  9720.000000 0      6080892.355     -1296404.652      3344420.891
10 0 59859  9900.000000 0      5291041.616     -1424835.098      4451337.537
10 0 59859 10080.000000 0      4306332.441     -1478141.884      5395157.727
10 0 59859 10260.000000 0      3164819.845     -1449830.986      6141521.002
10 0 59859 10440.000000 0      1910283.380     -1337446.156      6663355.648
10 0 59859 10620.000000 0       590507.589     -1142770.825      6941809.014
10 0 59859 10800.000000 0      -744554.277      -871834.227      6966876.823
10 0 59859 10980.000000 0     -2044662.437      -534722.909      6737722.188
10 0 59859 11160.000000 0     -3261158.468      -145205.578      6262691.799
10 0 59859 11340.000000 0     -4348769.885       279818.198      5559033.084
10 0 59859 11520.000000 0     -5267301.242       721027.226      4652309.542
10 0 59859 11700.000000 0     -5983149.889      1157522.237      3575517.301
10 0 59859 11880.000000 0     -6470582.776      1567772.851      2367921.622
10 0 59859 12060.000000 0     -6712719.343      1930627.005      1073645.647
10 0 59859 12240.000000 0     -6702171.407      2226335.670      -259948.286
10 0 59859 12420.000000 0     -6441294.664      2437539.917     -1584024.555
10 0 59859 12600.000000 0     -5942035.089      2550166.648     -2850105.632
10 0 59859 12780.000000 0     -5225377.090      2554188.308     -4011890.522
10 0 59859 12960.000000 0     -4320419.756      2444202.066     -5026973.737
10 0 59859 13140.000000 0     -3263141.094      2219802.336     -5858388.326
10 0 59859 13320.000000 0     -2094921.584      1885735.147     -6475919.788
10 0 59859 13500.000000 0      -860895.478      1451829.608     -6857159.421
10 0 59859 13680.000000 0       391800.602       932710.114     -6988266.447
10 0 59859 13860.000000 0      1615811.164       347304.983     -6864436.747
10 0 59859 14040.000000 0      2765333.632      -281835.595     -6490076.401
10 0 59859 14220.000000 0      3797821.526      -929394.643     -5878664.882
10 0 59859 14400.000000 0      4675563.537     -1568288.335     -5052312.567
10 0 59859 14580.000000 0      5367090.961     -2170782.552     -4041019.218
10 0 59859 14760.000000 0      5848360.293     -2709686.545     -2881634.756
10 0 59859 14940.000000 0      6103654.161     -3159569.930     -1616543.466
10 0 59859 15120.000000 0      6126150.285     -3497945.274      -292110.372
10 0 59859 15300.000000 0      5918123.919     -3706355.614      1043050.078
10 0 59859 15480.000000 0      5490767.229     -3771308.844      2339912.193
10 0 59859 15660.000000 0      4863625.833     -3685002.687      3550900.618
10 0 59859 15840.000000 0      4063687.592     -3445800.517      4631678.541
10 0 59859 16020.000000 0      3124182.547     -3058441.063      5542789.079
10 0 59859 16200.000000 0      2083153.439     -2533973.625      6251084.368
10 0 59859 16380.000000 0       981876.559     -1889426.471      6730891.545
10 0 59859 16560.000000 0      -136795.064     -1147231.608      6964889.191
10 0 59859 16740.000000 0     -1230098.323      -334429.109      6944680.791
10 0 59859 16920.000000 0     -2256978.368       518319.693      6671062.767
10 0 59859 17100.000000 0     -3179612.064      1377879.363      6153988.646
10 0 59859 17280.000000 0     -3964792.661      2209912.902      5412230.298
10 0 59859 17460.000000 0     -4585135.661      2980241.710      4472740.554
10 0 59859 17640.000000 0     -5020062.781      3656247.278      3369719.574
10 0 59859 17820.000000 0     -5256519.927      4208255.980      2143404.809
10 0 59859 18000.000000 0     -5289396.570      4610849.822       838619.345
10 0 59859 18180.000000 0     -5121619.965      4844035.009      -496879.232
10 0 59859 18360.000000 0     -4763914.245      4894202.888     -1814180.496
10 0 59859 18540.000000 0     -4234230.772      4754834.576     -3065060.666
10 0 59859 18720.000000 0     -3556876.386      4426902.501     -4203790.446
10 0 59859 18900.000000 0     -2761391.292      3918952.763     -5188824.332
10 0 59859 19080.000000 0     -1881245.086      3246875.860     -5984302.209
10 0 59859 19260.000000 0      -952417.459      2433384.149     -6561322.526
10 0 59859 19440.000000 0       -11922.196      1507215.577     -6898946.842
10 0 59859 19620.000000 0       903658.734       502104.957     -6984912.021
10 0 59859 19800.000000 0      1759582.325      -544440.036     -6816048.709
10 0 59859 19980.000000 0      2524250.600     -1592524.467     -6398394.057
10 0 59859 20160.000000 0      3170371.391     -2601367.583     -5746999.756
10 0 59859 20340.000000 0      3675944.330     -3530879.074     -4885441.497
10 0 59859 20520.000000 0      4025037.687     -4343265.256     -3845019.999
10 0 59859 20700.000000 0      4208316.629     -5004589.766     -2663667.952
10 0 59859 20880.000000 0      4223307.301     -5486229.567     -1384593.870
10 0 59859 21060.000000 0      4074371.637     -5766153.373       -54692.363
10 0 59859 21240.000000 0      3772386.141     -5829946.031      1277214.904
10 0 59859 21420.000000 0      3334138.816     -5671521.345      2562228.960
10 0 59859 21600.000000 0      2781473.194     -5293479.163      3753227.585
10 0 59859 21780.000000 0      2140228.930     -4707094.126      4806631.189
10 0 59859 21960.000000 0      1439042.187     -3931942.811      5684009.356
99
